{"fetched_at":"2026-07-11T06:35:55.956Z","source":"https://celestrak.org/NORAD/elements/gp.php?NAME=WORLDVIEW&FORMAT=JSON","constellation":"worldview","records":[{"OBJECT_NAME":"WORLDVIEW-1 (WV-1)","OBJECT_ID":"2007-041A","EPOCH":"2026-07-10T17:25:45.153984","CLASSIFICATION_TYPE":"U","MEAN_MOTION":15.2452756,"ECCENTRICITY":0.0001149,"INCLINATION":97.3892,"RA_OF_ASC_NODE":311.1383,"ARG_OF_PERICENTER":232.1635,"MEAN_ANOMALY":127.9499,"EPHEMERIS_TYPE":0,"NORAD_CAT_ID":32060,"ELEMENT_SET_NO":999,"REV_AT_EPOCH":4646,"BSTAR":0.00016247,"MEAN_MOTION_DOT":0.00003926,"MEAN_MOTION_DDOT":0},{"OBJECT_NAME":"WORLDVIEW-2 (WV-2)","OBJECT_ID":"2009-055A","EPOCH":"2026-07-10T19:45:07.655328","CLASSIFICATION_TYPE":"U","MEAN_MOTION":14.3790621,"ECCENTRICITY":0.0005132,"INCLINATION":98.4757,"RA_OF_ASC_NODE":264.9506,"ARG_OF_PERICENTER":140.3305,"MEAN_ANOMALY":219.8258,"EPHEMERIS_TYPE":0,"NORAD_CAT_ID":35946,"ELEMENT_SET_NO":999,"REV_AT_EPOCH":87904,"BSTAR":0.000029619,"MEAN_MOTION_DOT":4.6e-7,"MEAN_MOTION_DDOT":0},{"OBJECT_NAME":"WORLDVIEW-3 (WV-3)","OBJECT_ID":"2014-048A","EPOCH":"2026-07-10T19:37:17.087232","CLASSIFICATION_TYPE":"U","MEAN_MOTION":14.85059928,"ECCENTRICITY":0.0000958,"INCLINATION":97.8558,"RA_OF_ASC_NODE":266.3236,"ARG_OF_PERICENTER":161.3791,"MEAN_ANOMALY":198.7459,"EPHEMERIS_TYPE":0,"NORAD_CAT_ID":40115,"ELEMENT_SET_NO":999,"REV_AT_EPOCH":64541,"BSTAR":0.000052517,"MEAN_MOTION_DOT":0.00000395,"MEAN_MOTION_DDOT":0}]}
