WORLDVIEW-1 (WV-1)      
1 32060U 07041A   26191.72621706  .00003926  00000+0  16247-3 0  9995
2 32060  97.3892 311.1383 0001149 232.1635 127.9499 15.24527560 46466
WORLDVIEW-2 (WV-2)      
1 35946U 09055A   26191.82300527  .00000046  00000+0  29619-4 0  9992
2 35946  98.4757 264.9506 0005132 140.3305 219.8258 14.37906210879044
WORLDVIEW-3 (WV-3)      
1 40115U 14048A   26191.81755888  .00000395  00000+0  52517-4 0  9997
2 40115  97.8558 266.3236 0000958 161.3791 198.7459 14.85059928645417
